{
  "norad_id": 45703,
  "name": "STARLINK-1407",
  "history": [
    {
      "epoch": "2026-03-28T22:00:01.999584",
      "apogee_km": 378.56827988850637,
      "perigee_km": 371.71599767754924,
      "latitude_deg": 43.18654589473191,
      "longitude_deg": -81.69777824007906,
      "semi_major_axis_km": 6753.2791387830275,
      "eccentricity": 0.00050733,
      "inclination_deg": 53.0321,
      "raan_deg": 221.7741,
      "arg_perigee_deg": 184.5245,
      "mean_anomaly_deg": 314.9133,
      "mean_motion_rev_day": 15.64338415
    },
    {
      "epoch": "2026-03-29T02:00:25.001280",
      "apogee_km": 378.50778614745104,
      "perigee_km": 371.57902305233256,
      "latitude_deg": -52.447734578110094,
      "longitude_deg": -65.67222079983912,
      "semi_major_axis_km": 6753.1804045998915,
      "eccentricity": 0.000513,
      "inclination_deg": 53.0316,
      "raan_deg": 220.9539,
      "arg_perigee_deg": 181.8696,
      "mean_anomaly_deg": 178.2299,
      "mean_motion_rev_day": 15.64372722
    }
  ]
}